OBJECT_NAME,OBJECT_ID,EPOCH,MEAN_MOTION,ECCENTRICITY,INCLINATION,RA_OF_ASC_NODE,ARG_OF_PERICENTER,MEAN_ANOMALY,EPHEMERIS_TYPE,CLASSIFICATION_TYPE,NORAD_CAT_ID,ELEMENT_SET_NO,REV_AT_EPOCH,BSTAR,MEAN_MOTION_DOT,MEAN_MOTION_DDOT
KUZGTU 1 (RS47S),2023-091AV,2026-07-08T13:11:39.564672,15.30369152,.00107835,97.5053,254.2528,29.5944,330.5904,0,U,57217,999,16764,.2872104E-3,.8373E-4,0
SONATE-2,2024-043Q,2026-07-07T22:16:08.021568,15.60378424,.00068899,97.5556,340.6230,128.2060,231.9818,0,U,59112,999,13112,.32057605E-3,.26225E-3,0
MESAT1,2024-125G,2026-07-08T14:21:38.030976,15.65779922,.00109783,97.2271,47.6034,133.0772,227.1409,0,U,60209,999,11291,.51996859E-3,.52869E-3,0
OOV-CUBE (TUBSAT-30),2024-128F,2026-07-08T08:20:16.667232,15.02855291,.00420044,61.9938,151.7829,138.3639,222.0664,0,U,60240,999,10929,.10730122E-3,.1256E-4,0
COLIBRI-S (RS67S),2024-199M,2026-07-08T14:02:51.794880,15.48647575,.00081262,97.2968,63.6439,185.8694,174.2463,0,U,61746,999,14072,.3094728E-3,.1648E-3,0
HORS 3 (RS81S),2024-199U,2026-07-08T13:44:56.492448,15.56545900,.0006248,97.2949,65.8591,177.2410,182.8881,0,U,61753,999,14088,.44975914E-3,.31915E-3,0
HORS 4 (RS82S),2024-199V,2026-07-08T12:42:14.245920,15.61854244,.00062309,97.2890,67.1622,167.5785,192.5628,0,U,61754,999,14097,.50945745E-3,.44266E-3,0
SIT-2086,2024-199AF,2026-07-08T13:51:04.457952,15.54653876,.00074162,97.2907,66.2656,165.0076,195.1399,0,U,61764,999,13775,.49092728E-3,.32519E-3,0
HYPERVIEW 1G (RS66S),2024-199AP,2026-07-08T13:05:30.170112,15.83006981,.0007972,97.2821,70.4432,162.5454,197.6091,0,U,61772,999,13804,.83476428E-3,.180801E-2,0
ALTAIR (RS65S),2024-199AW,2026-07-08T14:14:21.593472,15.37421684,.00113585,97.3007,58.8057,222.0370,138.0004,0,U,61779,999,14040,.14592415E-3,.5281E-4,0
ASRTU-1 (AO-123),2024-199AY,2026-07-08T14:24:53.313984,15.35989237,.00123554,97.2978,58.0796,225.9399,134.0829,0,U,61781,999,13721,.15576149E-3,.5389E-4,0
SAMSAT-IONOSPHERE (RS75S),2024-199BB,2026-07-08T13:37:27.201216,15.59636011,.00083425,97.2913,65.9839,182.5334,177.5882,0,U,61784,999,14089,.52372629E-3,.41824E-3,0
RTU MIREA 1 (RS51S),2024-199BC,2026-07-08T14:31:43.389120,15.63641713,.00085146,97.2899,66.9723,176.5244,183.6075,0,U,61785,999,13781,.55524429E-3,.51816E-3,0
TEVEL2-4,2025-052D,2026-07-07T04:41:46.381344,15.35364717,.00041832,97.3872,84.6269,68.1516,292.0172,0,U,63213,999,7318,.40159497E-3,.13726E-3,0
TEVEL2-5,2025-052E,2026-07-07T16:11:38.603040,15.35192497,.00041858,97.3872,85.0494,68.0190,292.1498,0,U,63214,999,7325,.39439263E-3,.13404E-3,0
TEVEL2-6,2025-052F,2026-07-08T03:27:06.309792,15.35167949,.00040211,97.3875,85.5040,70.9311,289.2368,0,U,63215,999,7332,.35316475E-3,.11983E-3,0
TEVEL2-1,2025-052H,2026-07-06T16:20:01.551264,15.34567986,.0004748,97.3844,83.6383,76.8203,283.3570,0,U,63217,999,7308,.45647174E-3,.15226E-3,0
TEVEL2-3,2025-052J,2026-07-08T04:10:47.457696,15.34667910,.00044655,97.3853,85.1582,75.5573,284.6165,0,U,63218,999,7331,.33977649E-3,.11343E-3,0
TEVEL2-2,2025-052K,2026-07-08T12:09:23.175072,15.34625790,.00047047,97.3852,85.4689,73.9445,286.2316,0,U,63219,999,7336,.39012445E-3,.13021E-3,0
OTP-2,2025-052AB,2026-07-08T11:58:20.478432,15.24279186,.00083266,97.3843,81.6117,89.1975,271.0216,0,U,63235,999,7311,.20344823E-3,.4902E-4,0
TEVEL2-9,2025-052AD,2026-07-06T16:24:30.479904,15.32543225,.0008199,97.3912,82.9767,80.0094,280.2072,0,U,63237,999,7301,.44317011E-3,.13872E-3,0
TEVEL2-7,2025-052AE,2026-07-08T03:57:49.575168,15.32265367,.00082272,97.3913,84.3629,76.1375,284.0782,0,U,63238,999,7323,.3285964E-3,.10171E-3,0
TEVEL2-8,2025-052AF,2026-07-08T10:26:09.639456,15.32256020,.0008168,97.3913,84.6085,76.0240,284.1910,0,U,63239,999,7327,.33158851E-3,.10262E-3,0
INNOSAT 16 (RS92S7),2025-155C,2026-07-08T13:57:34.417440,15.25690737,.00124107,97.4574,156.6454,108.1524,252.1067,0,U,64878,999,8393,.16750545E-3,.4202E-4,0
GEOSCAN 6 (RS92S6),2025-155D,2026-07-08T13:30:44.927136,15.30568083,.00099977,97.4565,158.2044,100.6607,259.5760,0,U,64879,999,8403,.24526477E-3,.7181E-4,0
GEOSCAN 1 (RS92S1),2025-155E,2026-07-08T13:21:52.537248,15.31205846,.00099293,97.4562,158.3654,100.8701,259.3658,0,U,64880,999,8404,.26021496E-3,.7777E-4,0
239ALFEROV (RS61S),2025-155F,2026-07-08T13:26:49.686720,15.33541769,.00096372,97.4561,159.0040,100.2508,259.9821,0,U,64881,999,8408,.3264422E-3,.10522E-3,0
GEOSCAN 2 (RS92S2),2025-155Q,2026-07-08T13:07:27.908256,15.31464546,.00092684,97.4561,158.5160,90.6950,269.5353,0,U,64890,999,8405,.26099247E-3,.7862E-4,0
GEOSCAN 5 (RS92S5),2025-155R,2026-07-08T13:04:42.796128,15.33851688,.00086242,97.4554,159.1342,104.1985,256.0216,0,U,64891,999,8409,.31589568E-3,.10277E-3,0
GEOSCAN 4 (RS92S4),2025-155S,2026-07-08T12:38:46.169664,15.34015270,.00085944,97.4558,159.1707,104.1634,256.0564,0,U,64892,999,8409,.3317575E-3,.10854E-3,0
