KUZGTU 1 (RS47S)        
1 57217U 23091AV  26189.54976348  .00008373  00000+0  28721-3 0  9992
2 57217  97.5053 254.2528 0010783  29.5944 330.5904 15.30369152167646
SONATE-2                
1 59112U 24043Q   26188.92787062  .00026225  00000+0  32058-3 0  9994
2 59112  97.5556 340.6230 0006889 128.2060 231.9818 15.60378424131125
MESAT1                  
1 60209U 24125G   26189.59835684  .00052869  00000+0  51997-3 0  9998
2 60209  97.2271  47.6034 0010978 133.0772 227.1409 15.65779922112911
OOV-CUBE (TUBSAT-30)    
1 60240U 24128F   26189.34741513  .00001256  00000+0  10730-3 0  9990
2 60240  61.9938 151.7829 0042004 138.3639 222.0664 15.02855291109297
COLIBRI-S (RS67S)       
1 61746U 24199M   26189.58532170  .00016480  00000+0  30947-3 0  9990
2 61746  97.2968  63.6439 0008126 185.8694 174.2463 15.48647575140729
HORS 3 (RS81S)          
1 61753U 24199U   26189.57287607  .00031915  00000+0  44976-3 0  9996
2 61753  97.2949  65.8591 0006248 177.2410 182.8881 15.56545900140887
HORS 4 (RS82S)          
1 61754U 24199V   26189.52933155  .00044266  00000+0  50946-3 0  9995
2 61754  97.2890  67.1622 0006230 167.5785 192.5628 15.61854244140978
SIT-2086                
1 61764U 24199AF  26189.57713493  .00032519  00000+0  49093-3 0  9991
2 61764  97.2907  66.2656 0007416 165.0076 195.1399 15.54653876137754
HYPERVIEW 1G (RS66S)    
1 61772U 24199AP  26189.54548808  .00180801  00000+0  83476-3 0  9994
2 61772  97.2821  70.4432 0007972 162.5454 197.6091 15.83006981138046
ALTAIR (RS65S)          
1 61779U 24199AW  26189.59330548  .00005281  00000+0  14592-3 0  9997
2 61779  97.3007  58.8057 0011358 222.0370 138.0004 15.37421684140401
ASRTU-1 (AO-123)        
1 61781U 24199AY  26189.60061706  .00005389  00000+0  15576-3 0  9991
2 61781  97.2978  58.0796 0012355 225.9399 134.0829 15.35989237137210
SAMSAT-IONOSPHERE (RS7*)
1 61784U 24199BB  26189.56767594  .00041824  00000+0  52373-3 0  9997
2 61784  97.2913  65.9839 0008342 182.5334 177.5882 15.59636011140899
RTU MIREA 1 (RS51S)     
1 61785U 24199BC  26189.60536330  .00051816  00000+0  55524-3 0  9998
2 61785  97.2899  66.9723 0008514 176.5244 183.6075 15.63641713137810
TEVEL2-4                
1 63213U 25052D   26188.19567571  .00013726  00000+0  40159-3 0  9995
2 63213  97.3872  84.6269 0004183  68.1516 292.0172 15.35364717 73185
TEVEL2-5                
1 63214U 25052E   26188.67475235  .00013404  00000+0  39439-3 0  9996
2 63214  97.3872  85.0494 0004185  68.0190 292.1498 15.35192497 73254
TEVEL2-6                
1 63215U 25052F   26189.14382303  .00011983  00000+0  35316-3 0  9993
2 63215  97.3875  85.5040 0004021  70.9311 289.2368 15.35167949 73321
TEVEL2-1                
1 63217U 25052H   26187.68057351  .00015226  00000+0  45647-3 0  9996
2 63217  97.3844  83.6383 0004748  76.8203 283.3570 15.34567986 73086
TEVEL2-3                
1 63218U 25052J   26189.17416039  .00011343  00000+0  33978-3 0  9995
2 63218  97.3853  85.1582 0004465  75.5573 284.6165 15.34667910 73315
TEVEL2-2                
1 63219U 25052K   26189.50651823  .00013021  00000+0  39012-3 0  9995
2 63219  97.3852  85.4689 0004704  73.9445 286.2316 15.34625790 73363
OTP-2                   
1 63235U 25052AB  26189.49884813  .00004902  00000+0  20345-3 0  9995
2 63235  97.3843  81.6117 0008326  89.1975 271.0216 15.24279186 73113
TEVEL2-9                
1 63237U 25052AD  26187.68368611  .00013872  00000+0  44317-3 0  9990
2 63237  97.3912  82.9767 0008199  80.0094 280.2072 15.32543225 73015
TEVEL2-7                
1 63238U 25052AE  26189.16515712  .00010171  00000+0  32860-3 0  9991
2 63238  97.3913  84.3629 0008227  76.1375 284.0782 15.32265367 73232
TEVEL2-8                
1 63239U 25052AF  26189.43483379  .00010262  00000+0  33159-3 0  9998
2 63239  97.3913  84.6085 0008168  76.0240 284.1910 15.32256020 73270
INNOSAT 16 (RS92S7)     
1 64878U 25155C   26189.58164835  .00004202  00000+0  16751-3 0  9997
2 64878  97.4574 156.6454 0012410 108.1524 252.1067 15.25690737 83932
GEOSCAN 6 (RS92S6)      
1 64879U 25155D   26189.56301999  .00007181  00000+0  24526-3 0  9998
2 64879  97.4565 158.2044 0009997 100.6607 259.5760 15.30568083 84038
GEOSCAN 1 (RS92S1)      
1 64880U 25155E   26189.55685807  .00007777  00000+0  26021-3 0  9995
2 64880  97.4562 158.3654 0009929 100.8701 259.3658 15.31205846 84048
239ALFEROV (RS61S)      
1 64881U 25155F   26189.56029730  .00010522  00000+0  32644-3 0  9994
2 64881  97.4561 159.0040 0009637 100.2508 259.9821 15.33541769 84081
GEOSCAN 2 (RS92S2)      
1 64890U 25155Q   26189.54685079  .00007862  00000+0  26099-3 0  9996
2 64890  97.4561 158.5160 0009268  90.6950 269.5353 15.31464546 84050
GEOSCAN 5 (RS92S5)      
1 64891U 25155R   26189.54493977  .00010277  00000+0  31590-3 0  9997
2 64891  97.4554 159.1342 0008624 104.1985 256.0216 15.33851688 84098
GEOSCAN 4 (RS92S4)      
1 64892U 25155S   26189.52692326  .00010854  00000+0  33176-3 0  9998
2 64892  97.4558 159.1707 0008594 104.1634 256.0564 15.34015270 84091
